1 37137U 10041A   18099.85097976  .00000032  00000-0  00000+0 0  9999
2 37137  64.5085 293.6009 0017284 155.1091  18.2526  2.13111023 59174
1 37137U 10041A   18100.62513571 +.00000033 +00000-0 +00000-0 0  9993
2 37137 064.5081 293.5739 0017292 155.1263 252.1660 02.13111011059130
1 37137U 10041A   18100.94666008 +.00000034 +00000-0 +00000-0 0  9993
2 37137 064.5079 293.5627 0017293 155.1120 138.8529 02.13111002059130
1 37137U 10041A   18101.02120562  .00000034  00000-0  00000+0 0  9992
2 37137  64.5079 293.5602 0017293 155.1185 196.0375  2.13111001 59194
1 37137U 10041A   18101.47561066 +.00000033 +00000-0 +00000-0 0  9999
2 37137 064.5077 293.5443 0017303 155.1261 184.6484 02.13110992059149
1 37137U 10041A   18101.91659988 +.00000033 +00000-0 +00000-0 0  9999
2 37137 064.5075 293.5290 0017308 155.1248 162.9756 02.13110982059158
1 37137U 10041A   18102.18101943  .00000032  00000-0  00000+0 0  9990
2 37137  64.5074 293.5198 0017310 155.1182   5.8443  2.13110977 59224
1 37137U 10041A   18102.48067675 +.00000031 +00000-0 +00000-0 0  9996
2 37137 064.5072 293.5093 0017316 155.1271 235.7316 02.13110969059179
1 37137U 10041A   18102.68686757 +.00000031 +00000-0 +00000-0 0  9996
2 37137 064.5071 293.5022 0017321 155.1199 033.9279 02.13110964059176
1 37137U 10041A   18103.39601328  .00000028  00000-0  00000+0 0  9991
2 37137  64.5068 293.4774 0017328 155.1315 217.9711  2.13110947 59257
1 37137U 10041A   18104.81512130  .00000023  00000-0  00000+0 0  9996
2 37137  64.5062 293.4280 0017344 155.1458 226.6930  2.13110913 59285
1 37137U 10041A   18105.28731264 +.00000022 +00000-0 +00000-0 0  9999
2 37137 064.5060 293.4116 0017351 155.1570 228.9458 02.13110902059237
1 37137U 10041A   18106.23377380  .00000019  00000-0  00000+0 0  9995
2 37137  64.5055 293.3786 0017359 155.1744 235.0510  2.13110880 59316
1 37137U 10041A   18107.34474269  .00000017  00000-0  00000+0 0  9990
2 37137  64.5050 293.3399 0017366 155.1878   7.3701  2.13110857 59335
1 37137U 10041A   18107.64799074 +.00000017 +00000-0 +00000-0 0  9998
2 37137 064.5049 293.3293 0017371 155.2013 240.0078 02.13110852059286
1 37137U 10041A   18108.28914387 +.00000018 +00000-0 +00000-0 0  9996
2 37137 064.5046 293.3070 0017379 155.2158 011.8843 02.13110840059296
1 37137U 10041A   18108.59174282  .00000018  00000-0  00000+0 0  9991
2 37137  64.5044 293.2965 0017381 155.2238 244.0294  2.13110836 59361
1 37137U 10041A   18109.45273569 +.00000020 +00000-0 +00000-0 0  9999
2 37137 064.5040 293.2665 0017380 155.2300 184.5746 02.13110823059314
1 37137U 10041A   18110.18573397  .00000023  00000-0  00000+0 0  9995
2 37137  64.5037 293.2410 0017393 155.2454  26.9136  2.13110816 59394
1 37137U 10041A   18110.48551948 +.00000024 +00000-0 +00000-0 0  9998
2 37137 064.5035 293.2305 0017390 155.2385 256.9151 02.13110815059341
1 37137U 10041A   18110.89044694 +.00000025 +00000-0 +00000-0 0  9999
2 37137 064.5033 293.2164 0017386 155.2337 207.5792 02.13110812059355
1 37137U 10041A   18111.59387101 +.00000026 +00000-0 +00000-0 0  9991
2 37137 064.5030 293.1919 0017400 155.2498 027.2281 02.13110810059363
1 37137U 10041A   18111.83838425  .00000026  00000-0  00000+0 0  9997
2 37137  64.5028 293.1834 0017399 155.2457 214.8222  2.13110811 59436
1 37137U 10041A   18112.31334205 +.00000026 +00000-0 +00000-0 0  9999
2 37137 064.5026 293.1669 0017407 155.2548 219.1994 02.13110812059380
1 37137U 10041A   18113.01094098  .00000025  00000-0  00000+0 0  9998
2 37137  64.5022 293.1426 0017411 155.2637  34.3867  2.13110815 59458
1 37137U 10041A   18113.49828628 +.00000023 +00000-0 +00000-0 0  9993
2 37137 064.5020 293.1256 0017422 155.2861 048.2543 02.13110819059402
1 37137U 10041A   18114.68025666  .00000013  00000-0  00000+0 0  9994
2 37137  64.5015 293.0845 0017444 155.3294 235.0156  2.13110833 59495
1 37137U 10041A   18115.62034297 +.00000003 +00000-0 +00000-0 0  9999
2 37137 064.5010 293.0517 0017453 155.3645 236.2123 02.13110847059454
1 37137U 10041A   18116.09894172 -.00000003  00000-0  00000+0 0  9997
2 37137  64.5008 293.0351 0017453 155.3633 243.3932  2.13110854 59527
1 37137U 10041A   18116.48578720 -.00000008 +00000-0 +00000-0 0  9994
2 37137 064.5007 293.0216 0017444 155.3550 180.1883 02.13110860059467
1 37137U 10041A   18117.25779845 -.00000017  00000-0  00000+0 0  9990
2 37137  64.5003 292.9948 0017448 155.3864  52.4419  2.13110874 59545
1 37137U 10041A   18118.40262858 -.00000028  00000-0  00000+0 0  9991
2 37137  64.4997 292.9549 0017451 155.4102 210.7289  2.13110900 59570
1 37137U 10041A   18119.40054407 -.00000034 +00000-0 +00000-0 0  9999
2 37137 064.4992 292.9202 0017449 155.4263 256.3111 02.13110925059539
1 37137U 10041A   18119.64285501 -.00000035  00000-0  00000+0 0  9996
2 37137  64.4991 292.9118 0017459 155.4586  82.1792  2.13110932 59597
1 37137U 10041A   18120.04255181 -.00000035 +00000-0 +00000-0 0  9994
2 37137 064.4989 292.8979 0017456 155.4489 028.8354 02.13110944059546
1 37137U 10041A   18121.70214931 -.00000030  00000-0  00000+0 0  9990
2 37137  64.4982 292.8402 0017445 155.4114 222.1120  2.13110983 59647
1 37137U 10041A   18122.41311821 -.00000025 +00000-0 +00000-0 0  9990
2 37137 064.4978 292.8155 0017450 155.4293 047.5478 02.13111000059591
1 37137U 10041A   18122.64815071 -.00000023 +00000-0 +00000-0 0  9999
2 37137 064.4977 292.8073 0017453 155.4257 227.8677 02.13111002059600
1 37137U 10041A   18123.12168780 -.00000019  00000-0  00000+0 0  9995
2 37137  64.4975 292.7908 0017456 155.4378 231.1522  2.13111010 59674
1 37137U 10041A   18123.83285748 -.00000012 +00000-0 +00000-0 0  9991
2 37137 064.4972 292.7661 0017464 155.4511 056.7466 02.13111019059627
1 37137U 10041A   18124.06731985 -.00000010 +00000-0 +00000-0 0  9994
2 37137 064.4971 292.7580 0017473 155.4785 236.5980 02.13111022059633
1 37137U 10041A   18124.97622116 -.00000003  00000-0  00000+0 0  9990
2 37137  64.4967 292.7264 0017475 155.4939 213.8895  2.13111026 59716
1 37137U 10041A   18125.43694517 +.00000000 +00000-0 +00000-0 0  9993
2 37137 064.4965 292.7104 0017480 155.5219 207.3280 02.13111027059666
1 37137U 10041A   18125.93684959 +.00000003 +00000-0 +00000-0 0  9990
2 37137 064.4962 292.6930 0017484 155.5455 230.8299 02.13111028059678
1 37137U 10041A   18126.19163394  .00000004  00000-0  00000+0 0  9994
2 37137  64.4961 292.6841 0017500 155.5946  66.2508  2.13111028 59733
1 37137U 10041A   18126.45966508 +.00000006 +00000-0 +00000-0 0  9994
2 37137 064.4960 292.6748 0017496 155.5921 271.8861 02.13111027059684
1 37137U 10041A   18127.28785545  .00000008  00000-0  00000+0 0  9997
2 37137  64.4955 292.6460 0017502 155.6186 187.2453  2.13111019 59757
1 37137U 10041A   18127.84925439 +.00000008 +00000-0 +00000-0 0  9998
2 37137 064.4952 292.6265 0017505 155.6380 257.9299 02.13111012059718
1 37137U 10041A   18128.79643088  .00000008  00000-0  00000+0 0  9999
2 37137  64.4947 292.5935 0017512 155.6583 264.5811  2.13110997 59791
1 37137U 10041A   18129.26787944 +.00000007 +00000-0 +00000-0 0  9992
2 37137 064.4944 292.5771 0017518 155.6676 266.2661 02.13110987059741
1 37137U 10041A   18129.67783934 +.00000006 +00000-0 +00000-0 0  9991
2 37137 064.4942 292.5629 0017521 155.6706 220.7833 02.13110978059756
1 37137U 10041A   18130.20975250  .00000004  00000-0  00000+0 0  9993
2 37137  64.4939 292.5444 0017525 155.6801 268.8563  2.13110967 59826
1 37137U 10041A   18130.60121494 +.00000003 +00000-0 +00000-0 0  9990
2 37137 064.4937 292.5308 0017530 155.6811 209.1844 02.13110958059774
1 37137U 10041A   18131.32703277 -.00000000  00000-0  00000+0 0  9992
2 37137  64.4933 292.5055 0017538 155.6748  46.0365  2.13110941 59842
1 37137U 10041A   18131.57107955 -.00000001 +00000-0 +00000-0 0  9992
2 37137 064.4932 292.4970 0017538 155.6851 233.2582 02.13110935059799
1 37137U 10041A   18132.51740462 -.00000005  00000-0  00000+0 0  9996
2 37137  64.4927 292.4641 0017551 155.7124 239.2493  2.13110912 59878
1 37137U 10041A   18133.38440326 -.00000007 +00000-0 +00000-0 0  9991
2 37137 064.4923 292.4340 0017560 155.7364 184.3845 02.13110891059828
1 37137U 10041A   18133.92871979 -.00000008 +00000-0 +00000-0 0  9994
2 37137 064.4920 292.4150 0017558 155.7235 241.9957 02.13110879059840
1 37137U 10041A   18133.92871979 -.00000008  00000-0  00000+0 0  9993
2 37137  64.4920 292.4150 0017558 155.7235 241.9957  2.13110879 59907
1 37137U 10041A   18134.87128751 -.00000009 +00000-0 +00000-0 0  9993
2 37137 064.4915 292.3822 0017567 155.7606 245.0942 02.13110860059862
1 37137U 10041A   18135.11070483 -.00000008  00000-0  00000+0 0  9997
2 37137  64.4914 292.3739 0017573 155.7791  68.7561  2.13110855 59928
1 37137U 10041A   18135.36492679 -.00000008 +00000-0 +00000-0 0  9990
2 37137 064.4913 292.3651 0017571 155.7798 263.7938 02.13110852059871
1 37137U 10041A   18135.81875648 -.00000007 +00000-0 +00000-0 0  9990
2 37137 064.4911 292.3493 0017575 155.8001 251.9505 02.13110845059887
1 37137U 10041A   18136.77012861 -.00000005 +00000-0 +00000-0 0  9994
2 37137 064.4906 292.3162 0017583 155.8417 261.7992 02.13110834059904
1 37137U 10041A   18136.77012861 -.00000005  00000-0  00000+0 0  9993
2 37137  64.4906 292.3162 0017583 155.8417 261.7992  2.13110834 59960
1 37137U 10041A   18137.62979247 -.00000002 +00000-0 +00000-0 0  9996
2 37137 064.4901 292.2863 0017586 155.8663 201.3066 02.13110827059917
1 37137U 10041A   18137.70721281 -.00000002 +00000-0 +00000-0 0  9998
2 37137 064.4901 292.2836 0017587 155.8671 260.7024 02.13110826059920
1 37137U 10041A   18138.11760831 -.00000001  00000-0  00000+0 0  9996
2 37137  64.4899 292.2693 0017589 155.8817 215.5422  2.13110824 59996
1 37137U 10041A   18139.12737493  .00000001  00000-0  00000+0 0  9995
2 37137  64.4894 292.2342 0017596 155.9109 270.2033  2.13110820 60012
1 37137U 10041A   18139.53791894 +.00000001 +00000-0 +00000-0 0  9996
2 37137 064.4891 292.2199 0017598 155.9260 225.1565 02.13110820059960
1 37137U 10041A   18139.96904487 +.00000000 +00000-0 +00000-0 0  9996
2 37137 064.4889 292.2050 0017604 155.9650 195.8762 02.13110821059967
